line1,line2,validFromUtcTime
1 00000U 00000E   26001.00000000  .00000000  00000-0  27772-4 0    01,2 00000  88.8750  60.3317 0010066 269.8018 300.2722 13.55294580    03,2026-01-01T00:00:00Z
1 00000U 00000E   26002.00000000  .00000000  00000-0  27772-4 0    02,2 00000  88.8747  60.2171 0009998 266.9833 139.2377 13.55287795    07,2026-01-02T00:00:00Z
